NORAD_CAT_ID,OBJECT_NAME,OBJECT_TYPE,EPOCH,MEAN_MOTION,ECCENTRICITY,INCLINATION,RA_OF_ASC_NODE,ARG_OF_PERICENTER,MEAN_ANOMALY,BSTAR,MEAN_MOTION_DOT,MEAN_MOTION_DDOT,TLE_LINE0,TLE_LINE1,TLE_LINE2,SEMIMAJOR_AXIS,PERIOD,APOGEE,PERIGEE,DECAYED
50182.0,STARLINK-3277,PAYLOAD,2023-11-21 12:26:19,15.08844644,0.0001482,53.2194,56.1546,88.6003,271.5159,1.7907e-05,-3e-08,0.0,0 STARLINK-3277,1 50182U 21125AC  23325.51827618 -.00000003  00000-0  17907-4 0  9992,2 50182  53.2194  56.1546 0001482  88.6003 271.5159 15.08844644109957,6917.866,95.437,540.756,538.706,0.0
50182.0,STARLINK-3277,PAYLOAD,2023-11-22 10:41:42,15.08849854,0.0001661,53.2207,51.993,86.5587,273.5595,0.00010312,1.354e-05,0.0,0 STARLINK-3277,1 50182U 21125AC  23326.44562870  .00001354  00000-0  10312-3 0  9992,2 50182  53.2207  51.9930 0001661  86.5587 273.5595 15.08849854109577,6917.85,95.437,540.864,538.566,0.0
50182.0,STARLINK-3277,PAYLOAD,2023-11-22 12:17:05,15.08853513,0.0001379,53.2196,51.6956,58.0734,302.0392,0.00011514,1.546e-05,0.0,0 STARLINK-3277,1 50182U 21125AC  23326.51186636  .00001546  00000-0  11514-3 0  9990,2 50182  53.2196  51.6956 0001379  58.0734 302.0392 15.08853513110104,6917.839,95.437,540.658,538.75,0.0
50182.0,STARLINK-3277,PAYLOAD,2023-11-23 12:07:53,15.08838621,0.0001705,53.2198,47.234,107.7894,252.3284,1.1486e-05,-1.05e-06,0.0,0 STARLINK-3277,1 50182U 21125AC  23327.50547620 -.00000105  00000-0  11486-4 0  9994,2 50182  53.2198  47.2340 0001705 107.7894 252.3284 15.08838621109733,6917.885,95.438,540.929,538.57,0.0
50182.0,STARLINK-3277,PAYLOAD,2023-11-24 10:23:18,15.08832382,0.0001779,53.2199,43.0704,109.251,250.8675,-0.00012866,-2.335e-05,0.0,0 STARLINK-3277,1 50182U 21125AC  23328.43284862 -.00002335  00000-0 -12866-3 0  9993,2 50182  53.2199  43.0704 0001779 109.2510 250.8675 15.08832382109875,6917.904,95.438,540.999,538.538,0.0
50182.0,STARLINK-3277,PAYLOAD,2023-11-24 15:09:27,15.08839637,0.0001934,53.2187,42.1759,112.1846,247.9351,-0.00015868,-2.813e-05,0.0,0 STARLINK-3277,1 50182U 21125AC  23328.63156518 -.00002813  00000-0 -15868-3 0  9997,2 50182  53.2187  42.1759 0001934 112.1846 247.9351 15.08839637109902,6917.881,95.438,541.084,538.409,0.0
50182.0,STARLINK-3277,PAYLOAD,2023-11-25 10:14:03,15.088451,0.000196,53.2206,38.6138,115.1588,244.9607,0.00021257,3.097e-05,0.0,0 STARLINK-3277,1 50182U 21125AC  23329.42643515  .00003097  00000-0  21257-3 0  9995,2 50182  53.2206  38.6138 0001960 115.1588 244.9607 15.08845100110545,6917.865,95.437,541.086,538.374,0.0
50182.0,STARLINK-3277,PAYLOAD,2023-11-26 10:04:50,15.08848863,0.0001706,53.2214,34.1532,104.1511,255.9671,0.00023051,3.383e-05,0.0,0 STARLINK-3277,1 50182U 21125AC  23330.42003140  .00003383  00000-0  23051-3 0  9993,2 50182  53.2214  34.1532 0001706 104.1511 255.9671 15.08848863110693,6917.853,95.437,540.898,538.538,0.0
50182.0,STARLINK-3277,PAYLOAD,2023-11-26 22:47:56,15.088437,0.000195,53.2195,31.7704,113.4113,246.7084,6.8579e-05,8.04e-06,0.0,0 STARLINK-3277,1 50182U 21125AC  23330.94995594  .00000804  00000-0  68579-4 0  9993,2 50182  53.2195  31.7704 0001950 113.4113 246.7084 15.08843700110250,6917.869,95.437,541.083,538.385,0.0
50182.0,STARLINK-3277,PAYLOAD,2023-11-27 11:31:04,15.08814654,0.0001751,53.22,29.3939,70.8667,289.2515,-0.00027601,-4.675e-05,0.0,0 STARLINK-3277,1 50182U 21125AC  23331.47991524 -.00004675  00000-0 -27601-3 0  9993,2 50182  53.2200  29.3939 0001751  70.8667 289.2515 15.08814654110335,6917.958,95.439,541.034,538.612,0.0
50182.0,STARLINK-3277,PAYLOAD,2023-11-27 13:06:27,15.0881983,0.0001427,53.2179,29.0937,81.3824,278.733,-0.00024807,-4.232e-05,0.0,0 STARLINK-3277,1 50182U 21125AC  23331.54614960 -.00004232  00000-0 -24807-3 0  9991,2 50182  53.2179  29.0937 0001427  81.3824 278.7330 15.08819830110864,6917.942,95.439,540.794,538.82,0.0
50182.0,STARLINK-3277,PAYLOAD,2023-11-28 03:24:55,15.08832849,0.0001273,53.2181,26.4117,97.6263,262.4874,-0.00020951,-3.62e-05,0.0,0 STARLINK-3277,1 50182U 21125AC  23332.14230517 -.00003620  00000-0 -20951-3 0  9996,2 50182  53.2181  26.4117 0001273  97.6263 262.4874 15.08832849110435,6917.902,95.438,540.648,538.887,0.0
50182.0,STARLINK-3277,PAYLOAD,2023-11-28 11:21:49,15.08855122,0.0001684,53.2196,24.9303,78.3472,281.7709,2.8304e-05,1.63e-06,0.0,0 STARLINK-3277,1 50182U 21125AC  23332.47348471  .00000163  00000-0  28304-4 0  9999,2 50182  53.2196  24.9303 0001684  78.3472 281.7709 15.08855122110480,6917.834,95.437,540.864,538.534,0.0
50182.0,STARLINK-3277,PAYLOAD,2023-11-28 22:29:32,15.08821029,0.0002253,53.2191,22.8547,46.0033,314.1145,0.00040647,6.183e-05,0.0,0 STARLINK-3277,1 50182U 21125AC  23332.93717660  .00006183  00000-0  40647-3 0  9991,2 50182  53.2191  22.8547 0002253  46.0033 314.1145 15.08821029110552,6917.938,95.439,541.362,538.245,0.0
50182.0,STARLINK-3277,PAYLOAD,2023-11-29 09:37:14,15.08826598,0.0002077,53.2195,20.7731,60.9738,299.1462,0.00039277,5.966e-05,0.0,0 STARLINK-3277,1 50182U 21125AC  23333.40085899  .00005966  00000-0  39277-3 0  9991,2 50182  53.2195  20.7731 0002077  60.9738 299.1462 15.08826598111145,6917.921,95.438,541.223,538.35,0.0
50182.0,STARLINK-3277,PAYLOAD,2023-11-29 22:20:18,15.08843465,0.0001994,53.2193,18.3939,61.0986,299.0206,0.00022656,3.32e-05,0.0,0 STARLINK-3277,1 50182U 21125AC  23333.93077417  .00003320  00000-0  22656-3 0  9991,2 50182  53.2193  18.3939 0001994  61.0986 299.0206 15.08843465110708,6917.87,95.437,541.114,538.355,0.0
50182.0,STARLINK-3277,PAYLOAD,2023-11-30 12:38:46,15.08859747,0.0001669,53.2186,15.7091,87.9639,272.1544,3.337e-05,2.43e-06,0.0,0 STARLINK-3277,1 50182U 21125AC  23334.52692521  .00000243  00000-0  33370-4 0  9993,2 50182  53.2186  15.7091 0001669  87.9639 272.1544 15.08859747110797,6917.82,95.436,540.84,538.53,0.0
50182.0,STARLINK-3277,PAYLOAD,2023-12-01 07:43:24,15.08834046,0.0001726,53.2185,12.1355,126.888,233.227,6.6076e-05,7.64e-06,0.0,0 STARLINK-3277,1 50182U 21125AC  23335.32181651  .00000764  00000-0  66076-4 0  9996,2 50182  53.2185  12.1355 0001726 126.8880 233.2270 15.08834046110918,6917.899,95.438,540.958,538.57,0.0
50182.0,STARLINK-3277,PAYLOAD,2023-12-01 12:29:34,15.08848901,0.0001693,53.2193,11.2468,107.3818,252.7359,-0.00010088,-1.894e-05,0.0,0 STARLINK-3277,1 50182U 21125AC  23335.52053259 -.00001894  00000-0 -10088-3 0  9998,2 50182  53.2193  11.2468 0001693 107.3818 252.7359 15.08848901110942,6917.853,95.437,540.889,538.547,0.0
50182.0,STARLINK-3277,PAYLOAD,2023-12-02 12:20:19,15.08862131,0.0001843,53.2189,6.7885,113.3471,246.7716,0.0001228,1.668e-05,0.0,0 STARLINK-3277,1 50182U 21125AC  23336.51411280  .00001668  00000-0  12280-3 0  9993,2 50182  53.2189   6.7885 0001843 113.3471 246.7716 15.08862131111614,6917.813,95.436,540.953,538.403,0.0
50182.0,STARLINK-3277,PAYLOAD,2023-12-03 02:38:51,15.08820511,0.0001997,53.2189,4.1124,102.3483,257.7733,-0.00012052,-2.205e-05,0.0,0 STARLINK-3277,1 50182U 21125AC  23337.11031312 -.00002205  00000-0 -12052-3 0  9991,2 50182  53.2189   4.1124 0001997 102.3483 257.7733 15.08820511111182,6917.94,95.439,541.186,538.423,0.0
50182.0,STARLINK-3277,PAYLOAD,2023-12-03 09:00:24,15.08813208,0.0001577,53.2186,2.9243,92.104,268.0133,-0.00017813,-3.12e-05,0.0,0 STARLINK-3277,1 50182U 21125AC  23337.37528361 -.00003120  00000-0 -17813-3 0  9991,2 50182  53.2186   2.9243 0001577  92.1040 268.0133 15.08813208111225,6917.962,95.439,540.918,538.736,0.0
50182.0,STARLINK-3277,PAYLOAD,2023-12-04 02:29:37,15.08839246,0.0001593,53.2187,359.6528,89.6263,270.4911,-0.00011607,-2.135e-05,0.0,0 STARLINK-3277,1 50182U 21125AC  23338.10391099 -.00002135  00000-0 -11607-3 0  9999,2 50182  53.2187 359.6528 0001593  89.6263 270.4911 15.08839246111333,6917.883,95.438,540.85,538.646,0.0
50182.0,STARLINK-3277,PAYLOAD,2023-12-04 08:51:09,15.08850176,0.0001971,53.2195,358.4672,104.5256,255.5955,8.5614e-06,-1.52e-06,0.0,0 STARLINK-3277,1 50182U 21125AC  23338.36886086 -.00000152  00000-0  85614-5 0  9999,2 50182  53.2195 358.4672 0001971 104.5256 255.5955 15.08850176111379,6917.849,95.437,541.078,538.351,0.0
50182.0,STARLINK-3277,PAYLOAD,2023-12-05 10:17:19,15.0883981,0.0001972,53.2194,353.7077,88.4316,271.6902,0.00036572,5.537e-05,0.0,0 STARLINK-3277,1 50182U 21125AC  23339.42870060  .00005537  00000-0  36572-3 0  9990,2 50182  53.2194 353.7077 0001972  88.4316 271.6902 15.08839810111534,6917.881,95.438,541.11,538.382,0.0
50182.0,STARLINK-3277,PAYLOAD,2023-12-06 10:08:06,15.08852645,0.0002109,53.2196,349.2483,89.4176,270.7058,3.4964e-05,2.68e-06,0.0,0 STARLINK-3277,1 50182U 21125AC  23340.42229924  .00000268  00000-0  34964-4 0  9999,2 50182  53.2196 349.2483 0002109  89.4176 270.7058 15.08852645112203,6917.842,95.437,541.166,538.248,0.0
50182.0,STARLINK-3277,PAYLOAD,2023-12-07 05:12:44,15.08843095,0.0002703,53.2203,345.6793,129.9803,230.1427,-0.00013176,-2.385e-05,0.0,0 STARLINK-3277,1 50182U 21125AC  23341.21718474 -.00002385  00000-0 -13176-3 0  9995,2 50182  53.2203 345.6793 0002703 129.9803 230.1427 15.08843095111807,6917.871,95.437,541.606,537.866,0.0
50182.0,STARLINK-3277,PAYLOAD,2023-12-08 09:49:40,15.08844154,0.0002047,53.2193,340.3256,105.2216,254.9002,2.7178e-05,1.44e-06,0.0,0 STARLINK-3277,1 50182U 21125AC  23342.40949957  .00000144  00000-0  27178-4 0  9996,2 50182  53.2193 340.3256 0002047 105.2216 254.9002 15.08844154111986,6917.868,95.437,541.149,538.317,0.0
50182.0,STARLINK-3277,PAYLOAD,2023-12-09 06:29:41,15.08843737,0.0001867,53.2188,336.4595,95.7733,264.3472,0.00010252,1.344e-05,0.0,0 STARLINK-3277,1 50182U 21125AC  23343.27061751  .00001344  00000-0  10252-3 0  9996,2 50182  53.2188 336.4595 0001867  95.7733 264.3472 15.08843737112633,6917.869,95.437,541.026,538.442,0.0
50182.0,STARLINK-3277,PAYLOAD,2023-12-09 23:58:56,15.08839818,0.0002004,53.2192,333.1929,104.1511,255.9704,-4.6399e-05,-1.027e-05,0.0,0 STARLINK-3277,1 50182U 21125AC  23343.99926576 -.00001027  00000-0 -46399-4 0  9992,2 50182  53.2192 333.1929 0002004 104.1511 255.9704 15.08839818112220,6917.881,95.438,541.132,538.36,0.0
